[
    {
        "Altitude(m)": 605470.793465081,
        "Argument of Periapsis(deg)": 0.0,
        "Eccentricity": 0.0,
        "Inclination(deg)": 60.0,
        "Latitude(deg)": 27.98821740380398,
        "Longitude(deg)": 62.26290959739251,
        "Mean Anomaly(deg)": 147.2727,
        "RAAN(deg)": 0.0,
        "Satellite Name": "Test1 9",
        "Satellite Number": 9,
        "Semi-Major Axis(m)": 6980739.136638005,
        "Time(s)": 0
    },
    {
        "Altitude(m)": 605395.8314391712,
        "Argument of Periapsis(deg)": 0.00010418945913296404,
        "Eccentricity": 0.0,
        "Inclination(deg)": 60.0,
        "Latitude(deg)": 27.473908539754998,
        "Longitude(deg)": 62.61609821949179,
        "Mean Anomaly(deg)": 147.8928061454618,
        "RAAN(deg)": -0.0004200491397426661,
        "Satellite Name": "Test1 9",
        "Satellite Number": 9,
        "Semi-Major Axis(m)": 6980739.136638005,
        "Time(s)": 10
    }
]